[{"OBJECT_NAME":"ONEWEB-0457","OBJECT_ID":"2022-012AB","EPOCH":"2025-12-24T03:44:36.168288","MEAN_MOTION":13.10372055,"ECCENTRICITY":0.00016533,"INCLINATION":87.8794,"RA_OF_ASC_NODE":71.1707,"ARG_OF_PERICENTER":119.0022,"MEAN_ANOMALY":241.1272,"EPHEMERIS_TYPE":0,"CLASSIFICATION_TYPE":"U","NORAD_CAT_ID":51647,"ELEMENT_SET_NO":999,"REV_AT_EPOCH":18642,"BSTAR":-0.0016745627,"MEAN_MOTION_DOT":-5.72e-6,"MEAN_MOTION_DDOT":0},{"OBJECT_NAME":"ONEWEB-0458","OBJECT_ID":"2022-012AC","EPOCH":"2025-12-24T04:15:41.190048","MEAN_MOTION":13.10376842,"ECCENTRICITY":0.00019068,"INCLINATION":87.8811,"RA_OF_ASC_NODE":71.1411,"ARG_OF_PERICENTER":104.7584,"MEAN_ANOMALY":255.3755,"EPHEMERIS_TYPE":0,"CLASSIFICATION_TYPE":"U","NORAD_CAT_ID":51648,"ELEMENT_SET_NO":999,"REV_AT_EPOCH":18638,"BSTAR":-0.00016080878,"MEAN_MOTION_DOT":-4.3e-7,"MEAN_MOTION_DDOT":0},{"OBJECT_NAME":"ONEWEB-0461","OBJECT_ID":"2022-012AD","EPOCH":"2025-12-24T04:42:34.225344","MEAN_MOTION":13.17648856,"ECCENTRICITY":0.0001707,"INCLINATION":87.9108,"RA_OF_ASC_NODE":40.6378,"ARG_OF_PERICENTER":100.9654,"MEAN_ANOMALY":259.167,"EPHEMERIS_TYPE":0,"CLASSIFICATION_TYPE":"U","NORAD_CAT_ID":51649,"ELEMENT_SET_NO":999,"REV_AT_EPOCH":19084,"BSTAR":0.00010518255,"MEAN_MOTION_DOT":5.4e-7,"MEAN_MOTION_DDOT":0},{"OBJECT_NAME":"ONEWEB-0463","OBJECT_ID":"2022-012AE","EPOCH":"2025-12-24T04:15:49.280544","MEAN_MOTION":13.17651274,"ECCENTRICITY":0.00020342,"INCLINATION":87.9094,"RA_OF_ASC_NODE":40.6832,"ARG_OF_PERICENTER":102.4847,"MEAN_ANOMALY":257.6512,"EPHEMERIS_TYPE":0,"CLASSIFICATION_TYPE":"U","NORAD_CAT_ID":51650,"ELEMENT_SET_NO":999,"REV_AT_EPOCH":19062,"BSTAR":-4.0634623e-5,"MEAN_MOTION_DOT":-3.0e-8,"MEAN_MOTION_DDOT":0},{"OBJECT_NAME":"ONEWEB-0464","OBJECT_ID":"2022-012AF","EPOCH":"2025-12-24T06:00:51.655968","MEAN_MOTION":13.10369681,"ECCENTRICITY":0.00017062,"INCLINATION":87.8798,"RA_OF_ASC_NODE":71.1615,"ARG_OF_PERICENTER":94.331,"MEAN_ANOMALY":265.8013,"EPHEMERIS_TYPE":0,"CLASSIFICATION_TYPE":"U","NORAD_CAT_ID":51651,"ELEMENT_SET_NO":999,"REV_AT_EPOCH":18641,"BSTAR":-0.00058216469,"MEAN_MOTION_DOT":-1.91e-6,"MEAN_MOTION_DDOT":0},{"OBJECT_NAME":"ONEWEB-0468","OBJECT_ID":"2022-012AG","EPOCH":"2025-12-24T06:10:25.968864","MEAN_MOTION":13.10376424,"ECCENTRICITY":0.00019419,"INCLINATION":87.8803,"RA_OF_ASC_NODE":71.1531,"ARG_OF_PERICENTER":100.2234,"MEAN_ANOMALY":259.9112,"EPHEMERIS_TYPE":0,"CLASSIFICATION_TYPE":"U","NORAD_CAT_ID":51652,"ELEMENT_SET_NO":999,"REV_AT_EPOCH":18639,"BSTAR":0.00057074207,"MEAN_MOTION_DOT":2.12e-6,"MEAN_MOTION_DDOT":0},{"OBJECT_NAME":"ONEWEB-0473","OBJECT_ID":"2022-012AH","EPOCH":"2025-12-24T03:58:57.387936","MEAN_MOTION":13.1037473,"ECCENTRICITY":0.000185,"INCLINATION":87.8801,"RA_OF_ASC_NODE":71.1751,"ARG_OF_PERICENTER":102.3956,"MEAN_ANOMALY":257.7379,"EPHEMERIS_TYPE":0,"CLASSIFICATION_TYPE":"U","NORAD_CAT_ID":51653,"ELEMENT_SET_NO":999,"REV_AT_EPOCH":18638,"BSTAR":-0.0014456419,"MEAN_MOTION_DOT":-4.92e-6,"MEAN_MOTION_DDOT":0},{"OBJECT_NAME":"ONEWEB-0474","OBJECT_ID":"2022-012AJ","EPOCH":"2025-12-24T03:47:00.246336","MEAN_MOTION":13.10372273,"ECCENTRICITY":0.00018729,"INCLINATION":87.8805,"RA_OF_ASC_NODE":71.1435,"ARG_OF_PERICENTER":96.0557,"MEAN_ANOMALY":264.0784,"EPHEMERIS_TYPE":0,"CLASSIFICATION_TYPE":"U","NORAD_CAT_ID":51654,"ELEMENT_SET_NO":999,"REV_AT_EPOCH":18637,"BSTAR":-0.0015776887,"MEAN_MOTION_DOT":-5.38e-6,"MEAN_MOTION_DDOT":0},{"OBJECT_NAME":"ONEWEB-0475","OBJECT_ID":"2022-012AK","EPOCH":"2025-12-24T04:32:49.615296","MEAN_MOTION":13.17650663,"ECCENTRICITY":0.00025075,"INCLINATION":87.9097,"RA_OF_ASC_NODE":40.6707,"ARG_OF_PERICENTER":90.4446,"MEAN_ANOMALY":269.6973,"EPHEMERIS_TYPE":0,"CLASSIFICATION_TYPE":"U","NORAD_CAT_ID":51655,"ELEMENT_SET_NO":999,"REV_AT_EPOCH":19064,"BSTAR":4.9322361e-5,"MEAN_MOTION_DOT":3.2e-7,"MEAN_MOTION_DDOT":0},{"OBJECT_NAME":"ONEWEB-0490","OBJECT_ID":"2022-138A","EPOCH":"2025-12-23T22:07:39.357120","MEAN_MOTION":13.19725165,"ECCENTRICITY":0.0001847,"INCLINATION":87.9214,"RA_OF_ASC_NODE":339.8303,"ARG_OF_PERICENTER":79.2492,"MEAN_ANOMALY":280.8849,"EPHEMERIS_TYPE":0,"CLASSIFICATION_TYPE":"U","NORAD_CAT_ID":54113,"ELEMENT_SET_NO":999,"REV_AT_EPOCH":15371,"BSTAR":-3.5935e-5,"MEAN_MOTION_DOT":-1.0e-8,"MEAN_MOTION_DDOT":0},{"OBJECT_NAME":"ONEWEB-0492","OBJECT_ID":"2022-138B","EPOCH":"2025-12-24T06:00:44.095968","MEAN_MOTION":13.19725836,"ECCENTRICITY":0.00016384,"INCLINATION":87.9208,"RA_OF_ASC_NODE":339.7792,"ARG_OF_PERICENTER":77.4105,"MEAN_ANOMALY":282.7211,"EPHEMERIS_TYPE":0,"CLASSIFICATION_TYPE":"U","NORAD_CAT_ID":54114,"ELEMENT_SET_NO":999,"REV_AT_EPOCH":15376,"BSTAR":-0.00043672266,"MEAN_MOTION_DOT":-1.62e-6,"MEAN_MOTION_DDOT":0},{"OBJECT_NAME":"ONEWEB-0495","OBJECT_ID":"2022-138C","EPOCH":"2025-12-23T22:12:11.985408","MEAN_MOTION":13.1972458,"ECCENTRICITY":0.0002184,"INCLINATION":87.9204,"RA_OF_ASC_NODE":339.847,"ARG_OF_PERICENTER":68.3188,"MEAN_ANOMALY":291.8177,"EPHEMERIS_TYPE":0,"CLASSIFICATION_TYPE":"U","NORAD_CAT_ID":54115,"ELEMENT_SET_NO":999,"REV_AT_EPOCH":15370,"BSTAR":0.00010022,"MEAN_MOTION_DOT":5.3e-7,"MEAN_MOTION_DDOT":0},{"OBJECT_NAME":"ONEWEB-0497","OBJECT_ID":"2022-138D","EPOCH":"2025-12-24T00:19:34.500000","MEAN_MOTION":13.19724696,"ECCENTRICITY":0.0001796,"INCLINATION":87.9208,"RA_OF_ASC_NODE":339.8165,"ARG_OF_PERICENTER":82.0365,"MEAN_ANOMALY":278.0972,"EPHEMERIS_TYPE":0,"CLASSIFICATION_TYPE":"U","NORAD_CAT_ID":54116,"ELEMENT_SET_NO":999,"REV_AT_EPOCH":15370,"BSTAR":-0.00028176344,"MEAN_MOTION_DOT":-1.0e-6,"MEAN_MOTION_DDOT":0},{"OBJECT_NAME":"ONEWEB-0499","OBJECT_ID":"2022-138E","EPOCH":"2025-12-24T05:23:12.708960","MEAN_MOTION":13.19726655,"ECCENTRICITY":0.00020213,"INCLINATION":87.9205,"RA_OF_ASC_NODE":339.7872,"ARG_OF_PERICENTER":83.4315,"MEAN_ANOMALY":276.7048,"EPHEMERIS_TYPE":0,"CLASSIFICATION_TYPE":"U","NORAD_CAT_ID":54117,"ELEMENT_SET_NO":999,"REV_AT_EPOCH":15374,"BSTAR":0.00017243241,"MEAN_MOTION_DOT":8.2e-7,"MEAN_MOTION_DDOT":0},{"OBJECT_NAME":"ONEWEB-0500","OBJECT_ID":"2022-138F","EPOCH":"2025-12-23T22:09:56.105856","MEAN_MOTION":13.19724872,"ECCENTRICITY":0.0001708,"INCLINATION":87.921,"RA_OF_ASC_NODE":339.8347,"ARG_OF_PERICENTER":85.307,"MEAN_ANOMALY":274.8258,"EPHEMERIS_TYPE":0,"CLASSIFICATION_TYPE":"U","NORAD_CAT_ID":54118,"ELEMENT_SET_NO":999,"REV_AT_EPOCH":15371,"BSTAR":-8.1555e-5,"MEAN_MOTION_DOT":-2.0e-7,"MEAN_MOTION_DDOT":0},{"OBJECT_NAME":"ONEWEB-0501","OBJECT_ID":"2022-138G","EPOCH":"2025-12-24T04:20:41.023104","MEAN_MOTION":13.19725337,"ECCENTRICITY":0.0001991,"INCLINATION":87.9221,"RA_OF_ASC_NODE":339.7831,"ARG_OF_PERICENTER":75.7552,"MEAN_ANOMALY":284.3801,"EPHEMERIS_TYPE":0,"CLASSIFICATION_TYPE":"U","NORAD_CAT_ID":54119,"ELEMENT_SET_NO":999,"REV_AT_EPOCH":15372,"BSTAR":-8.8789972e-5,"MEAN_MOTION_DOT":-2.3e-7,"MEAN_MOTION_DDOT":0},{"OBJECT_NAME":"ONEWEB-0502","OBJECT_ID":"2022-138H","EPOCH":"2025-12-24T00:21:50.865120","MEAN_MOTION":13.19725395,"ECCENTRICITY":0.00020391,"INCLINATION":87.9214,"RA_OF_ASC_NODE":339.7975,"ARG_OF_PERICENTER":80.4056,"MEAN_ANOMALY":279.7307,"EPHEMERIS_TYPE":0,"CLASSIFICATION_TYPE":"U","NORAD_CAT_ID":54120,"ELEMENT_SET_NO":999,"REV_AT_EPOCH":15372,"BSTAR":-0.00025552938,"MEAN_MOTION_DOT":-8.9e-7,"MEAN_MOTION_DDOT":0},{"OBJECT_NAME":"ONEWEB-0503","OBJECT_ID":"2022-138J","EPOCH":"2025-12-24T00:05:55.607712","MEAN_MOTION":13.19724486,"ECCENTRICITY":0.00020043,"INCLINATION":87.9216,"RA_OF_ASC_NODE":339.8036,"ARG_OF_PERICENTER":90.3344,"MEAN_ANOMALY":269.8018,"EPHEMERIS_TYPE":0,"CLASSIFICATION_TYPE":"U","NORAD_CAT_ID":54121,"ELEMENT_SET_NO":999,"REV_AT_EPOCH":15371,"BSTAR":-0.00021119901,"MEAN_MOTION_DOT":-7.2e-7,"MEAN_MOTION_DDOT":0},{"OBJECT_NAME":"ONEWEB-0504","OBJECT_ID":"2022-138K","EPOCH":"2025-12-24T05:15:15.656544","MEAN_MOTION":13.19724869,"ECCENTRICITY":0.00020634,"INCLINATION":87.9211,"RA_OF_ASC_NODE":339.7764,"ARG_OF_PERICENTER":81.7391,"MEAN_ANOMALY":278.3976,"EPHEMERIS_TYPE":0,"CLASSIFICATION_TYPE":"U","NORAD_CAT_ID":54122,"ELEMENT_SET_NO":999,"REV_AT_EPOCH":15375,"BSTAR":-6.874083e-6,"MEAN_MOTION_DOT":1.0e-7,"MEAN_MOTION_DDOT":0},{"OBJECT_NAME":"ONEWEB-0505","OBJECT_ID":"2022-138L","EPOCH":"2025-12-23T21:54:00.208224","MEAN_MOTION":13.19725325,"ECCENTRICITY":0.000218,"INCLINATION":87.9214,"RA_OF_ASC_NODE":339.828,"ARG_OF_PERICENTER":74.5231,"MEAN_ANOMALY":285.6142,"EPHEMERIS_TYPE":0,"CLASSIFICATION_TYPE":"U","NORAD_CAT_ID":54123,"ELEMENT_SET_NO":999,"REV_AT_EPOCH":15369,"BSTAR":6.9139e-5,"MEAN_MOTION_DOT":4.1e-7,"MEAN_MOTION_DDOT":0},{"OBJECT_NAME":"ONEWEB-0506","OBJECT_ID":"2022-138M","EPOCH":"2025-12-24T04:34:19.284672","MEAN_MOTION":13.19726387,"ECCENTRICITY":0.00019402,"INCLINATION":87.9215,"RA_OF_ASC_NODE":339.7697,"ARG_OF_PERICENTER":80.995,"MEAN_ANOMALY":279.1402,"EPHEMERIS_TYPE":0,"CLASSIFICATION_TYPE":"U","NORAD_CAT_ID":54124,"ELEMENT_SET_NO":999,"REV_AT_EPOCH":15372,"BSTAR":0.00018469635,"MEAN_MOTION_DOT":8.7e-7,"MEAN_MOTION_DDOT":0},{"OBJECT_NAME":"ONEWEB-0507","OBJECT_ID":"2022-138N","EPOCH":"2025-12-24T05:03:53.583840","MEAN_MOTION":13.1972561,"ECCENTRICITY":0.00019034,"INCLINATION":87.9196,"RA_OF_ASC_NODE":339.7988,"ARG_OF_PERICENTER":78.3954,"MEAN_ANOMALY":281.7392,"EPHEMERIS_TYPE":0,"CLASSIFICATION_TYPE":"U","NORAD_CAT_ID":54125,"ELEMENT_SET_NO":999,"REV_AT_EPOCH":15377,"BSTAR":0.00022907371,"MEAN_MOTION_DOT":1.05e-6,"MEAN_MOTION_DDOT":0},{"OBJECT_NAME":"ONEWEB-0508","OBJECT_ID":"2022-138P","EPOCH":"2025-12-24T04:59:20.079456","MEAN_MOTION":13.1972625,"ECCENTRICITY":0.00019224,"INCLINATION":87.9202,"RA_OF_ASC_NODE":339.7939,"ARG_OF_PERICENTER":74.6978,"MEAN_ANOMALY":285.4367,"EPHEMERIS_TYPE":0,"CLASSIFICATION_TYPE":"U","NORAD_CAT_ID":54126,"ELEMENT_SET_NO":999,"REV_AT_EPOCH":15375,"BSTAR":0.00010488173,"MEAN_MOTION_DOT":5.5e-7,"MEAN_MOTION_DDOT":0}]
